[{"OBJECT_NAME":"HAWK-9A","OBJECT_ID":"2024-066E","EPOCH":"2026-03-09T10:20:39.002208","MEAN_MOTION":14.98777479,"ECCENTRICITY":0.00036271,"INCLINATION":45.6088,"RA_OF_ASC_NODE":72.7153,"ARG_OF_PERICENTER":244.6286,"MEAN_ANOMALY":115.4219,"EPHEMERIS_TYPE":0,"CLASSIFICATION_TYPE":"U","NORAD_CAT_ID":59446,"ELEMENT_SET_NO":999,"REV_AT_EPOCH":10486,"BSTAR":0.00023458946,"MEAN_MOTION_DOT":2.638e-5,"MEAN_MOTION_DDOT":0},{"OBJECT_NAME":"STARLINK-32600","OBJECT_ID":"2024-225R","EPOCH":"2026-03-09T15:11:36.351168","MEAN_MOTION":14.98350761,"ECCENTRICITY":0.0003012,"INCLINATION":70.0026,"RA_OF_ASC_NODE":154.7094,"ARG_OF_PERICENTER":264.8696,"MEAN_ANOMALY":95.2119,"EPHEMERIS_TYPE":0,"CLASSIFICATION_TYPE":"U","NORAD_CAT_ID":62178,"ELEMENT_SET_NO":999,"REV_AT_EPOCH":7011,"BSTAR":0.00086211,"MEAN_MOTION_DOT":0.00010214,"MEAN_MOTION_DDOT":0}]
